{"type": "FeatureCollection", "features": [ {"type": "Feature", "properties": {"norad_id": 34819, "name": "COSMOS 2251 DEB", "group": "cosmos-2251-debris", "lat": -64.67420507808171, "lon": 106.19550067851358, "alt_km": 680.5314075850683, "timestamp": "2025-12-12T07:43:20.911038+00:00", "meta": {"OBJECT_NAME": "COSMOS 2251 DEB", "OBJECT_ID": "1993-036ABJ", "EPOCH": "2025-12-11T12:39:52.439328", "MEAN_MOTION": 14.6393976, "ECCENTRICITY": 0.00156974, "INCLINATION": 74.0191, "RA_OF_ASC_NODE": 144.9895, "ARG_OF_PERICENTER": 239.0012, "MEAN_ANOMALY": 187.5455, "EPHEMERIS_TYPE": 0, "CLASSIFICATION_TYPE": "U", "NORAD_CAT_ID": 34819, "ELEMENT_SET_NO": 999, "REV_AT_EPOCH": 88211, "BSTAR": 0.0030654339, "MEAN_MOTION_DOT": 0.00016081, "MEAN_MOTION_DDOT": 0}, "tle": {"line1": "1 34819U 93036ABJ 25345.52769027  .00016081  00000+0  30654-2 0  9998", "line2": "2 34819  74.0191 144.9895 0015697 239.0012 187.5455 14.63939760882117"}}, "geometry": {"type": "Point", "coordinates": [106.19550067851358, -64.67420507808171]}}, {"type": "Feature", "properties": {"norad_id": 34823, "name": "COSMOS 2251 DEB", "group": "cosmos-2251-debris", "lat": -8.664994470178208, "lon": 100.57325642761361, "alt_km": 818.2114030576031, "timestamp": "2025-12-12T07:43:20.911049+00:00", "meta": {"OBJECT_NAME": "COSMOS 2251 DEB", "OBJECT_ID": "1993-036ABN", "EPOCH": "2025-12-10T14:30:29.359008", "MEAN_MOTION": 14.54904355, "ECCENTRICITY": 0.0154887, "INCLINATION": 74.0414, "RA_OF_ASC_NODE": 106.322, "ARG_OF_PERICENTER": 191.6219, "MEAN_ANOMALY": 168.1356, "EPHEMERIS_TYPE": 0, "CLASSIFICATION_TYPE": "U", "NORAD_CAT_ID": 34823, "ELEMENT_SET_NO": 999, "REV_AT_EPOCH": 88350, "BSTAR": 0.0013618, "MEAN_MOTION_DOT": 6.85e-05, "MEAN_MOTION_DDOT": 0}, "tle": {"line1": "1 34823U 93036ABN 25344.60450647  .00006850  00000+0  13618-2 0  9990", "line2": "2 34823  74.0414 106.3220 0154887 191.6219 168.1356 14.54904355883502"}}, "geometry": {"type": "Point", "coordinates": [100.57325642761361, -8.664994470178208]}}, {"type": "Feature", "properties": {"norad_id": 34845, "name": "COSMOS 2251 DEB", "group": "cosmos-2251-debris", "lat": -26.453337866111596, "lon": 140.93626628790014, "alt_km": 729.9111370120172, "timestamp": "2025-12-12T07:43:20.911059+00:00", "meta": {"OBJECT_NAME": "COSMOS 2251 DEB", "OBJECT_ID": "1993-036ABP", "EPOCH": "2025-12-09T20:04:05.418048", "MEAN_MOTION": 14.45850049, "ECCENTRICITY": 0.00222586, "INCLINATION": 74.0237, "RA_OF_ASC_NODE": 153.7694, "ARG_OF_PERICENTER": 315.2139, "MEAN_ANOMALY": 44.7222, "EPHEMERIS_TYPE": 0, "CLASSIFICATION_TYPE": "U", "NORAD_CAT_ID": 34845, "ELEMENT_SET_NO": 999, "REV_AT_EPOCH": 87424, "BSTAR": 0.00046671234, "MEAN_MOTION_DOT": 1.636e-05, "MEAN_MOTION_DDOT": 0}, "tle": {"line1": "1 34845U 93036ABP 25343.83617382  .00001636  00000+0  46671-3 0  9992", "line2": "2 34845  74.0237 153.7694 0022258 315.2139  44.7222 14.45850049874243"}}, "geometry": {"type": "Point", "coordinates": [140.93626628790014, -26.453337866111596]}}, {"type": "Feature", "properties": {"norad_id": 34846, "name": "COSMOS 2251 DEB", "group": "cosmos-2251-debris", "lat": -74.00593219797784, "lon": 170.0208513948085, "alt_km": 732.3285302821432, "timestamp": "2025-12-12T07:43:20.911070+00:00", "meta": {"OBJECT_NAME": "COSMOS 2251 DEB", "OBJECT_ID": "1993-036ABQ", "EPOCH": "2025-12-11T22:11:05.595648", "MEAN_MOTION": 14.47207444, "ECCENTRICITY": 0.0026081, "INCLINATION": 74.0307, "RA_OF_ASC_NODE": 263.2999, "ARG_OF_PERICENTER": 329.815, "MEAN_ANOMALY": 30.1504, "EPHEMERIS_TYPE": 0, "CLASSIFICATION_TYPE": "U", "NORAD_CAT_ID": 34846, "ELEMENT_SET_NO": 999, "REV_AT_EPOCH": 87392, "BSTAR": 0.0014122588, "MEAN_MOTION_DOT": 5.157e-05, "MEAN_MOTION_DDOT": 0}, "tle": {"line1": "1 34846U 93036ABQ 25345.92437032  .00005157  00000+0  14123-2 0  9995", "line2": "2 34846  74.0307 263.2999 0026081 329.8150  30.1504 14.47207444873922"}}, "geometry": {"type": "Point", "coordinates": [170.0208513948085, -74.00593219797784]}}, {"type": "Feature", "properties": {"norad_id": 34852, "name": "COSMOS 2251 DEB", "group": "cosmos-2251-debris", "lat": -8.831692433527664, "lon": -98.80868577410376, "alt_km": 761.0475269241997, "timestamp": "2025-12-12T07:43:20.911081+00:00", "meta": {"OBJECT_NAME": "COSMOS 2251 DEB", "OBJECT_ID": "1993-036ABW", "EPOCH": "2025-12-11T03:21:40.223232", "MEAN_MOTION": 14.37002528, "ECCENTRICITY": 0.00160835, "INCLINATION": 74.033, "RA_OF_ASC_NODE": 265.9134, "ARG_OF_PERICENTER": 9.31, "MEAN_ANOMALY": 350.8348, "EPHEMERIS_TYPE": 0, "CLASSIFICATION_TYPE": "U", "NORAD_CAT_ID": 34852, "ELEMENT_SET_NO": 999, "REV_AT_EPOCH": 87511, "BSTAR": 0.00017988234, "MEAN_MOTION_DOT": 5.08e-06, "MEAN_MOTION_DDOT": 0}, "tle": {"line1": "1 34852U 93036ABW 25345.14004888  .00000508  00000+0  17988-3 0  9993", "line2": "2 34852  74.0330 265.9134 0016083   9.3100 350.8348 14.37002528875117"}}, "geometry": {"type": "Point", "coordinates": [-98.80868577410376, -8.831692433527664]}}, {"type": "Feature", "properties": {"norad_id": 34854, "name": "COSMOS 2251 DEB", "group": "cosmos-2251-debris", "lat": -13.85535716547581, "lon": -16.545853297081127, "alt_km": 633.3479521715799, "timestamp": "2025-12-12T07:43:20.911091+00:00", "meta": {"OBJECT_NAME": "COSMOS 2251 DEB", "OBJECT_ID": "1993-036ABY", "EPOCH": "2025-12-10T04:25:53.682240", "MEAN_MOTION": 14.76585117, "ECCENTRICITY": 0.0066172, "INCLINATION": 74.0287, "RA_OF_ASC_NODE": 163.5908, "ARG_OF_PERICENTER": 275.7691, "MEAN_ANOMALY": 83.5942, "EPHEMERIS_TYPE": 0, "CLASSIFICATION_TYPE": "U", "NORAD_CAT_ID": 34854, "ELEMENT_SET_NO": 999, "REV_AT_EPOCH": 71844, "BSTAR": 0.00096088, "MEAN_MOTION_DOT": 6.925e-05, "MEAN_MOTION_DDOT": 0}, "tle": {"line1": "1 34854U 93036ABY 25344.18464910  .00006925  00000+0  96088-3 0  9991", "line2": "2 34854  74.0287 163.5908 0066172 275.7691  83.5942 14.76585117718445"}}, "geometry": {"type": "Point", "coordinates": [-16.545853297081127, -13.85535716547581]}}, {"type": "Feature", "properties": {"norad_id": 34856, "name": "COSMOS 2251 DEB", "group": "cosmos-2251-debris", "lat": -42.477576331564926, "lon": -79.05346076167456, "alt_km": 531.8192116031378, "timestamp": "2025-12-12T07:43:20.911101+00:00", "meta": {"OBJECT_NAME": "COSMOS 2251 DEB", "OBJECT_ID": "1993-036ACA", "EPOCH": "2025-12-11T13:15:05.666688", "MEAN_MOTION": 15.05962388, "ECCENTRICITY": 0.00329642, "INCLINATION": 73.9966, "RA_OF_ASC_NODE": 87.2929, "ARG_OF_PERICENTER": 225.0346, "MEAN_ANOMALY": 148.7122, "EPHEMERIS_TYPE": 0, "CLASSIFICATION_TYPE": "U", "NORAD_CAT_ID": 34856, "ELEMENT_SET_NO": 999, "REV_AT_EPOCH": 89094, "BSTAR": 0.0030960777, "MEAN_MOTION_DOT": 0.00045898, "MEAN_MOTION_DDOT": 0}, "tle": {"line1": "1 34856U 93036ACA 25345.55214892  .00045898  00000+0  30961-2 0  9996", "line2": "2 34856  73.9966  87.2929 0032964 225.0346 148.7122 15.05962388890943"}}, "geometry": {"type": "Point", "coordinates": [-79.05346076167456, -42.477576331564926]}}, {"type": "Feature", "properties": {"norad_id": 34857, "name": "COSMOS 2251 DEB", "group": "cosmos-2251-debris", "lat": -51.089054954520705, "lon": 86.82804309717986, "alt_km": 690.2332552705993, "timestamp": "2025-12-12T07:43:20.911112+00:00", "meta": {"OBJECT_NAME": "COSMOS 2251 DEB", "OBJECT_ID": "1993-036ACB", "EPOCH": "2025-12-10T10:09:42.100416", "MEAN_MOTION": 14.5885085, "ECCENTRICITY": 0.00659222, "INCLINATION": 74.0153, "RA_OF_ASC_NODE": 111.2471, "ARG_OF_PERICENTER": 236.0948, "MEAN_ANOMALY": 183.224, "EPHEMERIS_TYPE": 0, "CLASSIFICATION_TYPE": "U", "NORAD_CAT_ID": 34857, "ELEMENT_SET_NO": 999, "REV_AT_EPOCH": 87867, "BSTAR": 0.001891387, "MEAN_MOTION_DOT": 9.104e-05, "MEAN_MOTION_DDOT": 0}, "tle": {"line1": "1 34857U 93036ACB 25344.42340394  .00009104  00000+0  18914-2 0  9993", "line2": "2 34857  74.0153 111.2471 0065922 236.0948 183.2240 14.58850850878672"}}, "geometry": {"type": "Point", "coordinates": [86.82804309717986, -51.089054954520705]}}, {"type": "Feature", "properties": {"norad_id": 34859, "name": "COSMOS 2251 DEB", "group": "cosmos-2251-debris", "lat": 6.058737583773335, "lon": 158.78723274946495, "alt_km": 525.6438234212437, "timestamp": "2025-12-12T07:43:20.911123+00:00", "meta": {"OBJECT_NAME": "COSMOS 2251 DEB", "OBJECT_ID": "1993-036ACD", "EPOCH": "2025-12-12T00:52:56.325792", "MEAN_MOTION": 15.14557844, "ECCENTRICITY": 0.00024711, "INCLINATION": 74.0312, "RA_OF_ASC_NODE": 341.1213, "ARG_OF_PERICENTER": 336.6743, "MEAN_ANOMALY": 83.5787, "EPHEMERIS_TYPE": 0, "CLASSIFICATION_TYPE": "U", "NORAD_CAT_ID": 34859, "ELEMENT_SET_NO": 999, "REV_AT_EPOCH": 88348, "BSTAR": 0.006051532, "MEAN_MOTION_DOT": 0.0011338, "MEAN_MOTION_DDOT": 0}, "tle": {"line1": "1 34859U 93036ACD 25346.03676303  .00113380  00000+0  60515-2 0  9992", "line2": "2 34859  74.0312 341.1213 0002471 336.6743  83.5787 15.14557844883482"}}, "geometry": {"type": "Point", "coordinates": [158.78723274946495, 6.058737583773335]}}, {"type": "Feature", "properties": {"norad_id": 34861, "name": "COSMOS 2251 DEB", "group": "cosmos-2251-debris", "lat": 71.834467889819, "lon": 170.84419181147024, "alt_km": 548.584542049307, "timestamp": "2025-12-12T07:43:20.911133+00:00", "meta": {"OBJECT_NAME": "COSMOS 2251 DEB", "OBJECT_ID": "1993-036ACF", "EPOCH": "2025-12-11T05:59:10.857408", "MEAN_MOTION": 15.02431826, "ECCENTRICITY": 0.00068951, "INCLINATION": 74.0185, "RA_OF_ASC_NODE": 53.8951, "ARG_OF_PERICENTER": 52.0075, "MEAN_ANOMALY": 8.8474, "EPHEMERIS_TYPE": 0, "CLASSIFICATION_TYPE": "U", "NORAD_CAT_ID": 34861, "ELEMENT_SET_NO": 999, "REV_AT_EPOCH": 88070, "BSTAR": 0.0046993553, "MEAN_MOTION_DOT": 0.0006286, "MEAN_MOTION_DDOT": 0}, "tle": {"line1": "1 34861U 93036ACF 25345.24943122  .00062860  00000+0  46994-2 0  9994", "line2": "2 34861  74.0185  53.8951 0006895  52.0075   8.8474 15.02431826880703"}}, "geometry": {"type": "Point", "coordinates": [170.84419181147024, 71.834467889819]}}]}